{
  "type": "FeatureCollection",
  "name": "osaka_metro",
  "attribution": "Osaka Metro / JR Yumesaki corridors from curated station WGS84 (Workspace preview). Refresh via scripts/generate-osaka-metro-geojson.ts.",
  "features": [
    {
      "type": "Feature",
      "properties": {
        "lineId": "midosuji",
        "nameKo": "미도스지선",
        "color": "#E60012"
      },
      "geometry": {
        "type": "LineString",
        "coordinates": [
          [
            135.64528,
            34.75778
          ],
          [
            135.52861,
            34.74194
          ],
          [
            135.5001,
            34.7334
          ],
          [
            135.49806,
            34.72639
          ],
          [
            135.49722,
            34.71028
          ],
          [
            135.49806,
            34.7025
          ],
          [
            135.50139,
            34.6925
          ],
          [
            135.49972,
            34.68167
          ],
          [
            135.50028,
            34.67472
          ],
          [
            135.50056,
            34.66611
          ],
          [
            135.50611,
            34.65556
          ],
          [
            135.50806,
            34.64861
          ],
          [
            135.51361,
            34.64611
          ],
          [
            135.52,
            34.63806
          ],
          [
            135.52806,
            34.6275
          ],
          [
            135.5325,
            34.61194
          ],
          [
            135.51278,
            34.59972
          ],
          [
            135.50833,
            34.57722
          ],
          [
            135.50694,
            34.56417
          ],
          [
            135.50583,
            34.55611
          ]
        ]
      }
    },
    {
      "type": "Feature",
      "properties": {
        "lineId": "tanimachi",
        "nameKo": "다니마치선",
        "color": "#522886"
      },
      "geometry": {
        "type": "LineString",
        "coordinates": [
          [
            135.57806,
            34.74222
          ],
          [
            135.56444,
            34.73528
          ],
          [
            135.545,
            34.72111
          ],
          [
            135.52222,
            34.70194
          ],
          [
            135.50194,
            34.70028
          ],
          [
            135.51111,
            34.69528
          ],
          [
            135.51694,
            34.68972
          ],
          [
            135.51889,
            34.68222
          ],
          [
            135.51889,
            34.67556
          ],
          [
            135.51806,
            34.66611
          ],
          [
            135.51972,
            34.655
          ],
          [
            135.51361,
            34.64611
          ],
          [
            135.51222,
            34.64306
          ],
          [
            135.575,
            34.54028
          ]
        ]
      }
    },
    {
      "type": "Feature",
      "properties": {
        "lineId": "yotsubashi",
        "nameKo": "요쓰바시선",
        "color": "#0078BA"
      },
      "geometry": {
        "type": "LineString",
        "coordinates": [
          [
            135.49611,
            34.69972
          ],
          [
            135.49639,
            34.69111
          ],
          [
            135.49972,
            34.68167
          ],
          [
            135.49722,
            34.67028
          ],
          [
            135.50056,
            34.66611
          ],
          [
            135.50611,
            34.65556
          ],
          [
            135.49528,
            34.64722
          ],
          [
            135.49167,
            34.64028
          ],
          [
            135.48889,
            34.62917
          ],
          [
            135.48028,
            34.61056
          ]
        ]
      }
    },
    {
      "type": "Feature",
      "properties": {
        "lineId": "chuo",
        "nameKo": "주오선",
        "color": "#019A66"
      },
      "geometry": {
        "type": "LineString",
        "coordinates": [
          [
            135.39139,
            34.64583
          ],
          [
            135.43056,
            34.65583
          ],
          [
            135.45028,
            34.66167
          ],
          [
            135.46194,
            34.66806
          ],
          [
            135.47361,
            34.6725
          ],
          [
            135.48639,
            34.67639
          ],
          [
            135.49972,
            34.68167
          ],
          [
            135.50639,
            34.68194
          ],
          [
            135.51889,
            34.68222
          ],
          [
            135.53417,
            34.68139
          ],
          [
            135.54472,
            34.68111
          ],
          [
            135.55556,
            34.68028
          ],
          [
            135.57361,
            34.67917
          ],
          [
            135.59167,
            34.67806
          ]
        ]
      }
    },
    {
      "type": "Feature",
      "properties": {
        "lineId": "sennichimae",
        "nameKo": "센니치마에선",
        "color": "#E44D93"
      },
      "geometry": {
        "type": "LineString",
        "coordinates": [
          [
            135.47528,
            34.69028
          ],
          [
            135.48056,
            34.68694
          ],
          [
            135.48639,
            34.67639
          ],
          [
            135.49028,
            34.67167
          ],
          [
            135.49444,
            34.66806
          ],
          [
            135.50056,
            34.66611
          ],
          [
            135.50611,
            34.66167
          ],
          [
            135.51806,
            34.66611
          ],
          [
            135.52972,
            34.66528
          ],
          [
            135.54444,
            34.6625
          ],
          [
            135.555,
            34.66111
          ],
          [
            135.56528,
            34.65833
          ]
        ]
      }
    },
    {
      "type": "Feature",
      "properties": {
        "lineId": "sakaisuji",
        "nameKo": "사카이스지선",
        "color": "#B5A36A"
      },
      "geometry": {
        "type": "LineString",
        "coordinates": [
          [
            135.51111,
            34.71028
          ],
          [
            135.51056,
            34.70417
          ],
          [
            135.51111,
            34.69528
          ],
          [
            135.5075,
            34.69111
          ],
          [
            135.50639,
            34.68194
          ],
          [
            135.50556,
            34.6725
          ],
          [
            135.50611,
            34.66167
          ],
          [
            135.5075,
            34.65444
          ],
          [
            135.50806,
            34.64861
          ],
          [
            135.49917,
            34.63611
          ]
        ]
      }
    },
    {
      "type": "Feature",
      "properties": {
        "lineId": "nagahori",
        "nameKo": "나가호리쓰루미료쿠치선",
        "color": "#A8BF00"
      },
      "geometry": {
        "type": "LineString",
        "coordinates": [
          [
            135.47222,
            34.65944
          ],
          [
            135.47861,
            34.66972
          ],
          [
            135.49028,
            34.67167
          ],
          [
            135.495,
            34.67222
          ],
          [
            135.50028,
            34.67472
          ],
          [
            135.50556,
            34.6725
          ],
          [
            135.51194,
            34.675
          ],
          [
            135.51889,
            34.67556
          ],
          [
            135.52528,
            34.67778
          ],
          [
            135.53417,
            34.68139
          ],
          [
            135.54528,
            34.68861
          ],
          [
            135.54278,
            34.69611
          ],
          [
            135.52861,
            34.69639
          ],
          [
            135.57778,
            34.71111
          ]
        ]
      }
    },
    {
      "type": "Feature",
      "properties": {
        "lineId": "imazatosuji",
        "nameKo": "이마자토스지선",
        "color": "#EE7B1A"
      },
      "geometry": {
        "type": "LineString",
        "coordinates": [
          [
            135.54861,
            34.7125
          ],
          [
            135.54694,
            34.70028
          ],
          [
            135.54528,
            34.68861
          ],
          [
            135.54472,
            34.68111
          ],
          [
            135.54444,
            34.6625
          ],
          [
            135.54167,
            34.64861
          ],
          [
            135.52861,
            34.62806
          ],
          [
            135.52806,
            34.59944
          ]
        ]
      }
    },
    {
      "type": "Feature",
      "properties": {
        "lineId": "nanko",
        "nameKo": "난코포트타운선",
        "color": "#00A0DE"
      },
      "geometry": {
        "type": "LineString",
        "coordinates": [
          [
            135.39139,
            34.64583
          ],
          [
            135.40833,
            34.63833
          ],
          [
            135.42222,
            34.63806
          ],
          [
            135.43056,
            34.63194
          ],
          [
            135.43889,
            34.62917
          ],
          [
            135.45,
            34.62111
          ],
          [
            135.48028,
            34.61056
          ]
        ]
      }
    },
    {
      "type": "Feature",
      "properties": {
        "lineId": "jr_yumesaki",
        "nameKo": "JR유메사키선",
        "color": "#1A6BB5"
      },
      "geometry": {
        "type": "LineString",
        "coordinates": [
          [
            135.46694,
            34.68167
          ],
          [
            135.455,
            34.675
          ],
          [
            135.4389,
            34.6678
          ],
          [
            135.43056,
            34.6625
          ]
        ]
      }
    }
  ]
}
